0 CZ-4 DEB
1 26253U 99057EP  13283.15386380  .00083690  00000-0  35102-2 0  3396
2 26253 098.5177 015.7608 0005490 210.2441 198.7756 15.23129010732151
0 CZ-4 DEB
1 26253U 99057EP  13283.53910881  .00185361  00000-0  78419-2 0  3416
2 26253 098.5187 016.1981 0005881 210.2919 149.8489 15.23196950732219
0 CZ-4 DEB
1 26253U 99057EP  13283.56183861  .00087713  00000-0  36728-2 0  3407
2 26253 098.5178 016.2235 0005521 209.8514 274.8560 15.23165632732210
0 CZ-4 DEB
1 26253U 99057EP  13283.73621262  .00058970  00000-0  24985-2 0  3425
2 26253 098.5168 016.4190 0006169 204.8607 155.2845 15.23145375732241
0 CZ-4 DEB
1 26253U 99057EP  13285.53218718  .00070063  00000-0  29189-2 0  3421
2 26253 098.5181 018.4574 0005373 205.5570 277.6343 15.23427257732511
0 CZ-4 DEB
1 26253U 99057EP  13286.84506020  .00072500  00000-0  30047-2 0  3436
2 26253 098.5185 019.9464 0005213 202.6881 276.6885 15.23592383732710
0 CZ-4 DEB
1 26253U 99057EP  13288.20777833  .00120035  00000-0  49066-2 0  3449
2 26253 098.5186 021.4923 0004862 198.4674 191.2207 15.23826637732914
0 CZ-4 DEB
1 26253U 99057EP  13288.81539218  .00094601  00000-0  38686-2 0  3455
2 26253 098.5187 022.1824 0004938 198.0255 282.9634 15.23934612733015
0 CZ-4 DEB
1 26253U 99057EP  13289.98533698  .00094787  00000-0  38545-2 0  3460
2 26253 098.5189 023.5105 0004711 195.5553 220.4106 15.24124007733196
0 CZ-4 DEB
1 26253U 99057EP  13291.16868917  .00092959  00000-0  37578-2 0  3473
2 26253 098.5191 024.8543 0004523 195.5688 229.6949 15.24333707733374
0 CZ-4 DEB
1 26253U 99057EP  13291.84035935  .00091266  00000-0  36792-2 0  3482
2 26253 098.5188 025.6171 0004442 190.5468 318.4159 15.24435006733473
0 CZ-4 DEB
1 26253U 99057EP  13293.20327498  .00086345  00000-0  34607-2 0  3498
2 26253 098.5183 027.1660 0004147 187.5490 237.0000 15.24655323733681
0 CZ-4 DEB
1 26253U 99057EP  13294.78822730  .00108489  00000-0  43026-2 0  3502
2 26253 098.5179 028.9670 0003903 183.2654 296.0682 15.24903177733921
0 CZ-4 DEB
1 26253U 99057EP  13295.23532696  .00106083  00000-0  41999-2 0  3518
2 26253 098.5176 029.4750 0003767 181.5464 230.7666 15.24973204733993
0 CZ-4 DEB
1 26253U 99057EP  13296.21556155  .00108688  00000-0  42787-2 0  3523
2 26253 098.5176 030.5899 0003567 178.7789 211.9259 15.25151493734142
